{"type":"FeatureCollection","features":[{"type":"Feature","properties":{"id":"lake-placid","name":"Lake Placid"},"geometry":{"type":"Point","coordinates":[-73.9799,44.2795]}},{"type":"Feature","properties":{"id":"keene-valley","name":"Keene Valley"},"geometry":{"type":"Point","coordinates":[-73.7902,44.1898]}},{"type":"Feature","properties":{"id":"cascade-lakes","name":"Cascade Lakes"},"geometry":{"type":"Point","coordinates":[-73.8862,44.2181]}},{"type":"Feature","properties":{"id":"high-peaks","name":"High Peaks Wilderness"},"geometry":{"type":"Point","coordinates":[-73.7511,44.2209]}}]}
